STARLINK-34426          
1 64345U 25126B   25341.08982839  .00011762  00000+0  99146-3 0  9998
2 64345  70.0021 267.8395 0002634 269.7661  90.3196 14.98348406 26818
STARLINK-34437          
1 64346U 25126C   25341.25256323  .00009567  00000+0  80821-3 0  9990
2 64346  70.0013 267.6056 0002511 273.8559  86.2312 14.98345992 26831
STARLINK-34407          
1 64347U 25126D   25341.33336806 -.00013664  00000+0 -11392-2 0  9996
2 64347  70.0013 267.4236 0002943 273.0684 139.3302 14.98344453  5680
STARLINK-34274          
1 64348U 25126E   25341.20250335  .00008920  00000+0  75417-3 0  9991
2 64348  70.0021 267.8341 0002850 270.4136  89.6697 14.98343305 26829
STARLINK-34301          
1 64349U 25126F   25341.09400110  .00015925  00000+0  13388-2 0  9998
2 64349  70.0018 267.8536 0003031 271.5601  88.5211 14.98347346 26811
STARLINK-34425          
1 64350U 25126G   25341.04811089  .00007868  00000+0  66627-3 0  9998
2 64350  70.0018 268.0911 0002658 272.8051  87.2804 14.98342503 26803
STARLINK-34389          
1 64351U 25126H   25341.03550885  .00675450  00000+0  51324-1 0  9996
2 64351  70.0023 268.0455 0009579 302.6060  57.4174 14.99402249 26808
STARLINK-34385          
1 64352U 25126J   25341.19416942  .00023826  00000+0  19964-2 0  9998
2 64352  70.0016 267.8010 0002844 274.4387  85.6447 14.98358203 26828
STARLINK-34431          
1 64353U 25126K   25341.22344022  .00177591  00000+0  14400-1 0  9990
2 64353  70.0031 267.5058 0006189 316.3188  43.7481 14.98636786 26835
STARLINK-34473          
1 64354U 25126L   25341.23586646  .00012158  00000+0  10244-2 0  9992
2 64354  70.0021 267.5471 0002840 270.4742  89.6091 14.98351998 26835
STARLINK-34270          
1 64355U 25126M   25340.97300256  .00016142  00000+0  13570-2 0  9996
2 64355  70.0011 268.2319 0002613 260.4419  99.6445 14.98345836 28001
STARLINK-34397          
1 64356U 25126N   25341.19834494  .00017372  00000+0  14594-2 0  9991
2 64356  70.0016 267.8137 0003342 269.5787  90.4990 14.98347249 26820
STARLINK-34454          
1 64357U 25126P   25341.33336806 -.00012905  00000+0 -10753-2 0  9994
2 64357  70.0012 267.4961 0002980 273.9167  70.9392 14.98345009  5778
STARLINK-34436          
1 64358U 25126Q   25341.33336806 -.00012982  00000+0 -10817-2 0  9991
2 64358  70.0010 267.1700 0003047 270.6854   6.8046 14.98349379  5775
STARLINK-34291          
1 64359U 25126R   25341.03122431  .01096558  00000+0  81078-1 0  9992
2 64359  70.0020 268.0291 0012104 299.1193  60.8755 14.99976723 26802
STARLINK-34458          
1 64360U 25126S   25339.83809601  .00072651  00000+0  59731-2 0  9999
2 64360  70.0055 271.0933 0004273 262.0492  98.0182 14.98717876 26626
