[{"OBJECT_NAME":"STARLINK-34426","OBJECT_ID":"2025-126B","EPOCH":"2025-12-07T02:09:21.172896","MEAN_MOTION":14.98348406,"ECCENTRICITY":0.00026341,"INCLINATION":70.0021,"RA_OF_ASC_NODE":267.8395,"ARG_OF_PERICENTER":269.7661,"MEAN_ANOMALY":90.3196,"EPHEMERIS_TYPE":0,"CLASSIFICATION_TYPE":"U","NORAD_CAT_ID":64345,"ELEMENT_SET_NO":999,"REV_AT_EPOCH":2681,"BSTAR":0.0009914564,"MEAN_MOTION_DOT":0.00011762,"MEAN_MOTION_DDOT":0},{"OBJECT_NAME":"STARLINK-34437","OBJECT_ID":"2025-126C","EPOCH":"2025-12-07T06:03:41.463072","MEAN_MOTION":14.98345992,"ECCENTRICITY":0.00025115,"INCLINATION":70.0013,"RA_OF_ASC_NODE":267.6056,"ARG_OF_PERICENTER":273.8559,"MEAN_ANOMALY":86.2312,"EPHEMERIS_TYPE":0,"CLASSIFICATION_TYPE":"U","NORAD_CAT_ID":64346,"ELEMENT_SET_NO":999,"REV_AT_EPOCH":2683,"BSTAR":0.000808208,"MEAN_MOTION_DOT":9.567e-5,"MEAN_MOTION_DDOT":0},{"OBJECT_NAME":"STARLINK-34407","OBJECT_ID":"2025-126D","EPOCH":"2025-12-07T08:00:03.000384","MEAN_MOTION":14.98344453,"ECCENTRICITY":0.00029433,"INCLINATION":70.0013,"RA_OF_ASC_NODE":267.4236,"ARG_OF_PERICENTER":273.0684,"MEAN_ANOMALY":139.3302,"EPHEMERIS_TYPE":0,"CLASSIFICATION_TYPE":"U","NORAD_CAT_ID":64347,"ELEMENT_SET_NO":999,"REV_AT_EPOCH":568,"BSTAR":-0.001139179,"MEAN_MOTION_DOT":-0.00013664,"MEAN_MOTION_DDOT":0},{"OBJECT_NAME":"STARLINK-34274","OBJECT_ID":"2025-126E","EPOCH":"2025-12-07T04:51:36.289440","MEAN_MOTION":14.98343305,"ECCENTRICITY":0.00028501,"INCLINATION":70.0021,"RA_OF_ASC_NODE":267.8341,"ARG_OF_PERICENTER":270.4136,"MEAN_ANOMALY":89.6697,"EPHEMERIS_TYPE":0,"CLASSIFICATION_TYPE":"U","NORAD_CAT_ID":64348,"ELEMENT_SET_NO":999,"REV_AT_EPOCH":2682,"BSTAR":0.00075417477,"MEAN_MOTION_DOT":8.92e-5,"MEAN_MOTION_DDOT":0},{"OBJECT_NAME":"STARLINK-34301","OBJECT_ID":"2025-126F","EPOCH":"2025-12-07T02:15:21.695040","MEAN_MOTION":14.98347346,"ECCENTRICITY":0.00030311,"INCLINATION":70.0018,"RA_OF_ASC_NODE":267.8536,"ARG_OF_PERICENTER":271.5601,"MEAN_ANOMALY":88.5211,"EPHEMERIS_TYPE":0,"CLASSIFICATION_TYPE":"U","NORAD_CAT_ID":64349,"ELEMENT_SET_NO":999,"REV_AT_EPOCH":2681,"BSTAR":0.0013388184,"MEAN_MOTION_DOT":0.00015925,"MEAN_MOTION_DDOT":0},{"OBJECT_NAME":"STARLINK-34425","OBJECT_ID":"2025-126G","EPOCH":"2025-12-07T01:09:16.780896","MEAN_MOTION":14.98342503,"ECCENTRICITY":0.00026589,"INCLINATION":70.0018,"RA_OF_ASC_NODE":268.0911,"ARG_OF_PERICENTER":272.8051,"MEAN_ANOMALY":87.2804,"EPHEMERIS_TYPE":0,"CLASSIFICATION_TYPE":"U","NORAD_CAT_ID":64350,"ELEMENT_SET_NO":999,"REV_AT_EPOCH":2680,"BSTAR":0.00066626599,"MEAN_MOTION_DOT":7.868e-5,"MEAN_MOTION_DDOT":0},{"OBJECT_NAME":"STARLINK-34389","OBJECT_ID":"2025-126H","EPOCH":"2025-12-07T00:51:07.964640","MEAN_MOTION":14.99402249,"ECCENTRICITY":0.0009579,"INCLINATION":70.0023,"RA_OF_ASC_NODE":268.0455,"ARG_OF_PERICENTER":302.606,"MEAN_ANOMALY":57.4174,"EPHEMERIS_TYPE":0,"CLASSIFICATION_TYPE":"U","NORAD_CAT_ID":64351,"ELEMENT_SET_NO":999,"REV_AT_EPOCH":2680,"BSTAR":0.051323719,"MEAN_MOTION_DOT":0.0067545,"MEAN_MOTION_DDOT":0},{"OBJECT_NAME":"STARLINK-34385","OBJECT_ID":"2025-126J","EPOCH":"2025-12-07T04:39:36.237888","MEAN_MOTION":14.98358203,"ECCENTRICITY":0.00028447,"INCLINATION":70.0016,"RA_OF_ASC_NODE":267.801,"ARG_OF_PERICENTER":274.4387,"MEAN_ANOMALY":85.6447,"EPHEMERIS_TYPE":0,"CLASSIFICATION_TYPE":"U","NORAD_CAT_ID":64352,"ELEMENT_SET_NO":999,"REV_AT_EPOCH":2682,"BSTAR":0.0019963699,"MEAN_MOTION_DOT":0.00023826,"MEAN_MOTION_DDOT":0},{"OBJECT_NAME":"STARLINK-34431","OBJECT_ID":"2025-126K","EPOCH":"2025-12-07T05:21:45.235008","MEAN_MOTION":14.98636786,"ECCENTRICITY":0.0006189,"INCLINATION":70.0031,"RA_OF_ASC_NODE":267.5058,"ARG_OF_PERICENTER":316.3188,"MEAN_ANOMALY":43.7481,"EPHEMERIS_TYPE":0,"CLASSIFICATION_TYPE":"U","NORAD_CAT_ID":64353,"ELEMENT_SET_NO":999,"REV_AT_EPOCH":2683,"BSTAR":0.014400251,"MEAN_MOTION_DOT":0.00177591,"MEAN_MOTION_DDOT":0},{"OBJECT_NAME":"STARLINK-34473","OBJECT_ID":"2025-126L","EPOCH":"2025-12-07T05:39:38.862144","MEAN_MOTION":14.98351998,"ECCENTRICITY":0.00028405,"INCLINATION":70.0021,"RA_OF_ASC_NODE":267.5471,"ARG_OF_PERICENTER":270.4742,"MEAN_ANOMALY":89.6091,"EPHEMERIS_TYPE":0,"CLASSIFICATION_TYPE":"U","NORAD_CAT_ID":64354,"ELEMENT_SET_NO":999,"REV_AT_EPOCH":2683,"BSTAR":0.0010243887,"MEAN_MOTION_DOT":0.00012158,"MEAN_MOTION_DDOT":0},{"OBJECT_NAME":"STARLINK-34270","OBJECT_ID":"2025-126M","EPOCH":"2025-12-06T23:21:07.421184","MEAN_MOTION":14.98345836,"ECCENTRICITY":0.00026132,"INCLINATION":70.0011,"RA_OF_ASC_NODE":268.2319,"ARG_OF_PERICENTER":260.4419,"MEAN_ANOMALY":99.6445,"EPHEMERIS_TYPE":0,"CLASSIFICATION_TYPE":"U","NORAD_CAT_ID":64355,"ELEMENT_SET_NO":999,"REV_AT_EPOCH":2800,"BSTAR":0.001357021,"MEAN_MOTION_DOT":0.00016142,"MEAN_MOTION_DDOT":0},{"OBJECT_NAME":"STARLINK-34397","OBJECT_ID":"2025-126N","EPOCH":"2025-12-07T04:45:37.002816","MEAN_MOTION":14.98347249,"ECCENTRICITY":0.00033426,"INCLINATION":70.0016,"RA_OF_ASC_NODE":267.8137,"ARG_OF_PERICENTER":269.5787,"MEAN_ANOMALY":90.499,"EPHEMERIS_TYPE":0,"CLASSIFICATION_TYPE":"U","NORAD_CAT_ID":64356,"ELEMENT_SET_NO":999,"REV_AT_EPOCH":2682,"BSTAR":0.0014593989,"MEAN_MOTION_DOT":0.00017372,"MEAN_MOTION_DDOT":0},{"OBJECT_NAME":"STARLINK-34454","OBJECT_ID":"2025-126P","EPOCH":"2025-12-07T08:00:03.000384","MEAN_MOTION":14.98345009,"ECCENTRICITY":0.00029808,"INCLINATION":70.0012,"RA_OF_ASC_NODE":267.4961,"ARG_OF_PERICENTER":273.9167,"MEAN_ANOMALY":70.9392,"EPHEMERIS_TYPE":0,"CLASSIFICATION_TYPE":"U","NORAD_CAT_ID":64357,"ELEMENT_SET_NO":999,"REV_AT_EPOCH":577,"BSTAR":-0.0010753115,"MEAN_MOTION_DOT":-0.00012905,"MEAN_MOTION_DDOT":0},{"OBJECT_NAME":"STARLINK-34436","OBJECT_ID":"2025-126Q","EPOCH":"2025-12-07T08:00:03.000384","MEAN_MOTION":14.98349379,"ECCENTRICITY":0.00030472,"INCLINATION":70.001,"RA_OF_ASC_NODE":267.17,"ARG_OF_PERICENTER":270.6854,"MEAN_ANOMALY":6.8046,"EPHEMERIS_TYPE":0,"CLASSIFICATION_TYPE":"U","NORAD_CAT_ID":64358,"ELEMENT_SET_NO":999,"REV_AT_EPOCH":577,"BSTAR":-0.0010816956,"MEAN_MOTION_DOT":-0.00012982,"MEAN_MOTION_DDOT":0},{"OBJECT_NAME":"STARLINK-34291","OBJECT_ID":"2025-126R","EPOCH":"2025-12-07T00:44:57.780384","MEAN_MOTION":14.99976723,"ECCENTRICITY":0.00121044,"INCLINATION":70.002,"RA_OF_ASC_NODE":268.0291,"ARG_OF_PERICENTER":299.1193,"MEAN_ANOMALY":60.8755,"EPHEMERIS_TYPE":0,"CLASSIFICATION_TYPE":"U","NORAD_CAT_ID":64359,"ELEMENT_SET_NO":999,"REV_AT_EPOCH":2680,"BSTAR":0.081078143,"MEAN_MOTION_DOT":0.01096558,"MEAN_MOTION_DDOT":0},{"OBJECT_NAME":"STARLINK-34458","OBJECT_ID":"2025-126S","EPOCH":"2025-12-05T20:06:51.495264","MEAN_MOTION":14.98717876,"ECCENTRICITY":0.0004273,"INCLINATION":70.0055,"RA_OF_ASC_NODE":271.0933,"ARG_OF_PERICENTER":262.0492,"MEAN_ANOMALY":98.0182,"EPHEMERIS_TYPE":0,"CLASSIFICATION_TYPE":"U","NORAD_CAT_ID":64360,"ELEMENT_SET_NO":999,"REV_AT_EPOCH":2662,"BSTAR":0.0059730555,"MEAN_MOTION_DOT":0.00072651,"MEAN_MOTION_DDOT":0}]
